start=new Date('2022-08-16T00:00:00.000Z').valueOf();
sats=[{"MEAN_MOTION":"15.08844556","EPOCH":"2022-08-15T22:00:00.999936","PERIAPSIS":"538.469","ECCENTRICITY":"0.00018250","OBJECT_NAME":"STARLINK-3685","TLE_LINE2":"2 52115  53.2190 162.9932 0001825  65.1432 293.4718 15.08844556  1309","APOAPSIS":"540.994","COUNTRY_CODE":"US","MEAN_MOTION_DOT":"-0.00014180","RCS_SIZE":"LARGE","NORAD_CAT_ID":"52115","INCLINATION":"53.2190","REF_FRAME":"TEME","FILE":"3537378","RA_OF_ASC_NODE":"162.9932","ARG_OF_PERICENTER":"65.1432","PERIOD":"95.437","ELEMENT_SET_NO":"999","TIME_SYSTEM":"UTC","SEMIMAJOR_AXIS":"6917.866","OBJECT_TYPE":"PAYLOAD","BSTAR":"-0.00087447000000","CLASSIFICATION_TYPE":"U","OBJECT_ID":"2022-029AD","GP_ID":"210299782","MEAN_ELEMENT_THEORY":"SGP4","MEAN_ANOMALY":"293.4718","MEAN_MOTION_DDOT":"0.0000000000000","DECAY_DATE":null,"SITE":"AFETR","CENTER_NAME":"EARTH","LAUNCH_DATE":"2022-03-19","TLE_LINE1":"1 52115U 22029AD  22227.91667824 -.00014180  00000-0 -87447-3 0  9996","EPHEMERIS_TYPE":"0","REV_AT_EPOCH":"130"},{"APOAPSIS":"541.335","TLE_LINE2":"2 52116  53.2175 162.9929 0002292  62.8407 235.8320 15.08838530  1308","MEAN_MOTION_DOT":"-0.00014379","COUNTRY_CODE":"US","MEAN_MOTION":"15.08838530","EPOCH":"2022-08-15T22:00:00.999936","PERIAPSIS":"538.164","OBJECT_NAME":"STARLINK-3735","ECCENTRICITY":"0.00022920","REF_FRAME":"TEME","FILE":"3537378","NORAD_CAT_ID":"52116","RCS_SIZE":"LARGE","INCLINATION":"53.2175","BSTAR":"-0.00088711000000","OBJECT_TYPE":"PAYLOAD","SEMIMAJOR_AXIS":"6917.885","CLASSIFICATION_TYPE":"U","GP_ID":"210301033","MEAN_ELEMENT_THEORY":"SGP4","OBJECT_ID":"2022-029AE","RA_OF_ASC_NODE":"162.9929","PERIOD":"95.438","ARG_OF_PERICENTER":"62.8407","ELEMENT_SET_NO":"999","TIME_SYSTEM":"UTC","TLE_LINE1":"1 52116U 22029AE  22227.91667824 -.00014379  00000-0 -88711-3 0  9992","EPHEMERIS_TYPE":"0","REV_AT_EPOCH":"130","MEAN_ANOMALY":"235.8320","DECAY_DATE":null,"MEAN_MOTION_DDOT":"0.0000000000000","LAUNCH_DATE":"2022-03-19","CENTER_NAME":"EARTH","SITE":"AFETR"},{"RCS_SIZE":"LARGE","NORAD_CAT_ID":"52117","INCLINATION":"53.2183","REF_FRAME":"TEME","FILE":"3537378","EPOCH":"2022-08-15T22:00:00.999936","MEAN_MOTION":"15.08868968","PERIAPSIS":"538.193","ECCENTRICITY":"0.00021160","OBJECT_NAME":"STARLINK-3738","TLE_LINE2":"2 52117  53.2183 162.9928 0002116  57.6794 340.9659 15.08868968  1304","APOAPSIS":"541.121","COUNTRY_CODE":"US","MEAN_MOTION_DOT":"-0.00054921","MEAN_ANOMALY":"340.9659","MEAN_MOTION_DDOT":"0.0000000000000","DECAY_DATE":null,"SITE":"AFETR","CENTER_NAME":"EARTH","LAUNCH_DATE":"2022-03-19","TLE_LINE1":"1 52117U 22029AF  22227.91667824 -.00054921  00000-0 -34563-2 0  9995","EPHEMERIS_TYPE":"0","REV_AT_EPOCH":"130","RA_OF_ASC_NODE":"162.9928","ARG_OF_PERICENTER":"57.6794","PERIOD":"95.436","ELEMENT_SET_NO":"999","TIME_SYSTEM":"UTC","OBJECT_TYPE":"PAYLOAD","SEMIMAJOR_AXIS":"6917.792","BSTAR":"-0.00345630000000","CLASSIFICATION_TYPE":"U","OBJECT_ID":"2022-029AF","MEAN_ELEMENT_THEORY":"SGP4","GP_ID":"210300776"},{"EPOCH":"2022-08-15T22:00:00.999936","MEAN_MOTION":"15.08852350","OBJECT_NAME":"STARLINK-3743","ECCENTRICITY":"0.00021580","PERIAPSIS":"538.215","APOAPSIS":"541.201","TLE_LINE2":"2 52118  53.2171 162.9913 0002158  60.5273 278.1165 15.08852350  1309","MEAN_MOTION_DOT":"-0.00014355","COUNTRY_CODE":"US","INCLINATION":"53.2171","NORAD_CAT_ID":"52118","RCS_SIZE":"LARGE","REF_FRAME":"TEME","FILE":"3537378","PERIOD":"95.437","ARG_OF_PERICENTER":"60.5273","RA_OF_ASC_NODE":"162.9913","TIME_SYSTEM":"UTC","ELEMENT_SET_NO":"999","OBJECT_TYPE":"PAYLOAD","BSTAR":"-0.00088525000000","SEMIMAJOR_AXIS":"6917.843","MEAN_ELEMENT_THEORY":"SGP4","GP_ID":"210300032","OBJECT_ID":"2022-029AG","CLASSIFICATION_TYPE":"U","MEAN_ANOMALY":"278.1165","LAUNCH_DATE":"2022-03-19","CENTER_NAME":"EARTH","SITE":"AFETR","DECAY_DATE":null,"MEAN_MOTION_DDOT":"0.0000000000000","TLE_LINE1":"1 52118U 22029AG  22227.91667824 -.00014355  00000-0 -88525-3 0  9991","REV_AT_EPOCH":"130","EPHEMERIS_TYPE":"0"},{"OBJECT_TYPE":"PAYLOAD","SEMIMAJOR_AXIS":"6917.856","BSTAR":"-0.00222320000000","CLASSIFICATION_TYPE":"U","GP_ID":"210300282","MEAN_ELEMENT_THEORY":"SGP4","OBJECT_ID":"2022-029AH","RA_OF_ASC_NODE":"162.9924","PERIOD":"95.437","ARG_OF_PERICENTER":"62.2357","ELEMENT_SET_NO":"999","TIME_SYSTEM":"UTC","TLE_LINE1":"1 52119U 22029AH  22227.91667824 -.00035505  00000-0 -22232-2 0  9994","EPHEMERIS_TYPE":"0","REV_AT_EPOCH":"130","MEAN_ANOMALY":"16.4412","DECAY_DATE":null,"MEAN_MOTION_DDOT":"0.0000000000000","CENTER_NAME":"EARTH","LAUNCH_DATE":"2022-03-19","SITE":"AFETR","APOAPSIS":"541.171","TLE_LINE2":"2 52119  53.2178 162.9924 0002096  62.2357  16.4412 15.08847900  1305","MEAN_MOTION_DOT":"-0.00035505","COUNTRY_CODE":"US","MEAN_MOTION":"15.08847900","EPOCH":"2022-08-15T22:00:00.999936","PERIAPSIS":"538.271","OBJECT_NAME":"STARLINK-3558","ECCENTRICITY":"0.00020960","REF_FRAME":"TEME","FILE":"3537378","NORAD_CAT_ID":"52119","RCS_SIZE":"LARGE","INCLINATION":"53.2178"},{"ELEMENT_SET_NO":"999","TIME_SYSTEM":"UTC","RA_OF_ASC_NODE":"162.9920","ARG_OF_PERICENTER":"59.4414","PERIOD":"95.435","CLASSIFICATION_TYPE":"U","OBJECT_ID":"2022-029AJ","GP_ID":"210300534","MEAN_ELEMENT_THEORY":"SGP4","OBJECT_TYPE":"PAYLOAD","SEMIMAJOR_AXIS":"6917.768","BSTAR":"-0.00372740000000","MEAN_MOTION_DDOT":"0.0000000000000","DECAY_DATE":null,"SITE":"AFETR","LAUNCH_DATE":"2022-03-19","CENTER_NAME":"EARTH","MEAN_ANOMALY":"319.1549","EPHEMERIS_TYPE":"0","REV_AT_EPOCH":"130","TLE_LINE1":"1 52120U 22029AJ  22227.91667824 -.00059184  00000-0 -37274-2 0  9997","PERIAPSIS":"538.077","ECCENTRICITY":"0.00022490","OBJECT_NAME":"STARLINK-3534","EPOCH":"2022-08-15T22:00:00.999936","MEAN_MOTION":"15.08876688","COUNTRY_CODE":"US","MEAN_MOTION_DOT":"-0.00059184","TLE_LINE2":"2 52120  53.2178 162.9920 0002249  59.4414 319.1549 15.08876688  1304","APOAPSIS":"541.189","RCS_SIZE":"LARGE","NORAD_CAT_ID":"52120","INCLINATION":"53.2178","FILE":"3537378","REF_FRAME":"TEME"},{"CLASSIFICATION_TYPE":"U","MEAN_ELEMENT_THEORY":"SGP4","GP_ID":"210301276","OBJECT_ID":"2022-029AK","BSTAR":"-0.00112770000000","OBJECT_TYPE":"PAYLOAD","SEMIMAJOR_AXIS":"6917.893","ELEMENT_SET_NO":"999","TIME_SYSTEM":"UTC","RA_OF_ASC_NODE":"153.0043","PERIOD":"95.438","ARG_OF_PERICENTER":"58.7583","EPHEMERIS_TYPE":"0","REV_AT_EPOCH":"130","TLE_LINE1":"1 52121U 22029AK  22227.91667824 -.00018189  00000-0 -11277-2 0  9993","DECAY_DATE":null,"MEAN_MOTION_DDOT":"0.0000000000000","LAUNCH_DATE":"2022-03-19","CENTER_NAME":"EARTH","SITE":"AFETR","MEAN_ANOMALY":"114.8979","MEAN_MOTION_DOT":"-0.00018189","COUNTRY_CODE":"US","APOAPSIS":"541.277","TLE_LINE2":"2 52121  53.2154 153.0043 0002197  58.7583 114.8979 15.08836021  1301","PERIAPSIS":"538.238","OBJECT_NAME":"STARLINK-3678","ECCENTRICITY":"0.00021970","MEAN_MOTION":"15.08836021","EPOCH":"2022-08-15T22:00:00.999936","FILE":"3537378","REF_FRAME":"TEME","NORAD_CAT_ID":"52121","RCS_SIZE":"LARGE","INCLINATION":"53.2154"},{"EPOCH":"2022-08-15T22:00:00.999936","MEAN_MOTION":"15.08852072","ECCENTRICITY":"0.00020650","OBJECT_NAME":"STARLINK-3726","PERIAPSIS":"538.280","TLE_LINE2":"2 52122  53.2190 162.9932 0002065  61.1472 357.4811 15.08852072  1301","APOAPSIS":"541.137","COUNTRY_CODE":"US","MEAN_MOTION_DOT":"-0.00022546","INCLINATION":"53.2190","RCS_SIZE":"LARGE","NORAD_CAT_ID":"52122","REF_FRAME":"TEME","FILE":"3537378","ARG_OF_PERICENTER":"61.1472","PERIOD":"95.437","RA_OF_ASC_NODE":"162.9932","TIME_SYSTEM":"UTC","ELEMENT_SET_NO":"999","OBJECT_TYPE":"PAYLOAD","SEMIMAJOR_AXIS":"6917.843","BSTAR":"-0.00140240000000","OBJECT_ID":"2022-029AL","GP_ID":"210299533","MEAN_ELEMENT_THEORY":"SGP4","CLASSIFICATION_TYPE":"U","MEAN_ANOMALY":"357.4811","SITE":"AFETR","CENTER_NAME":"EARTH","LAUNCH_DATE":"2022-03-19","MEAN_MOTION_DDOT":"0.0000000000000","DECAY_DATE":null,"TLE_LINE1":"1 52122U 22029AL  22227.91667824 -.00022546  00000-0 -14024-2 0  9999","REV_AT_EPOCH":"130","EPHEMERIS_TYPE":"0"},{"SEMIMAJOR_AXIS":"6917.841","OBJECT_TYPE":"PAYLOAD","BSTAR":"-0.00304450000000","MEAN_ELEMENT_THEORY":"SGP4","GP_ID":"210299783","OBJECT_ID":"2022-029AM","CLASSIFICATION_TYPE":"U","PERIOD":"95.437","ARG_OF_PERICENTER":"60.3526","RA_OF_ASC_NODE":"153.0092","TIME_SYSTEM":"UTC","ELEMENT_SET_NO":"999","TLE_LINE1":"1 52123U 22029AM  22227.91667824 -.00048437  00000-0 -30445-2 0  9992","REV_AT_EPOCH":"130","EPHEMERIS_TYPE":"0","MEAN_ANOMALY":"153.2978","LAUNCH_DATE":"2022-03-19","CENTER_NAME":"EARTH","SITE":"AFETR","DECAY_DATE":null,"MEAN_MOTION_DDOT":"0.0000000000000","APOAPSIS":"541.581","TLE_LINE2":"2 52123  53.2162 153.0092 0002711  60.3526 153.2978 15.08853041  1301","MEAN_MOTION_DOT":"-0.00048437","COUNTRY_CODE":"US","MEAN_MOTION":"15.08853041","EPOCH":"2022-08-15T22:00:00.999936","OBJECT_NAME":"STARLINK-3725","ECCENTRICITY":"0.00027110","PERIAPSIS":"537.830","REF_FRAME":"TEME","FILE":"3537378","INCLINATION":"53.2162","NORAD_CAT_ID":"52123","RCS_SIZE":"LARGE"},{"FILE":"3537378","REF_FRAME":"TEME","INCLINATION":"53.2188","NORAD_CAT_ID":"52124","RCS_SIZE":"LARGE","MEAN_MOTION_DOT":"-0.00011981","COUNTRY_CODE":"US","APOAPSIS":"541.136","TLE_LINE2":"2 52124  53.2188 162.9937 0002076  67.5344  31.1094 15.08854870  1302","OBJECT_NAME":"STARLINK-3684","ECCENTRICITY":"0.00020760","PERIAPSIS":"538.264","EPOCH":"2022-08-15T22:00:00.999936","MEAN_MOTION":"15.08854870","REV_AT_EPOCH":"130","EPHEMERIS_TYPE":"0","TLE_LINE1":"1 52124U 22029AN  22227.91667824 -.00011981  00000-0 -73558-3 0  9990","CENTER_NAME":"EARTH","LAUNCH_DATE":"2022-03-19","SITE":"AFETR","DECAY_DATE":null,"MEAN_MOTION_DDOT":"0.0000000000000","MEAN_ANOMALY":"31.1094","GP_ID":"210301034","MEAN_ELEMENT_THEORY":"SGP4","OBJECT_ID":"2022-029AN","CLASSIFICATION_TYPE":"U","OBJECT_TYPE":"PAYLOAD","SEMIMAJOR_AXIS":"6917.835","BSTAR":"-0.00073558000000","TIME_SYSTEM":"UTC","ELEMENT_SET_NO":"999","PERIOD":"95.437","ARG_OF_PERICENTER":"67.5344","RA_OF_ASC_NODE":"162.9937"}];
